ESTCUBE 1               
1 39161U 13021C   22310.72829745  .00001045  00000+0  16933-3 0  9993
2 39161  97.8972  24.2035 0009522 332.0515  28.0082 14.73253610510410
FENGYUN 3C              
1 39260U 13052A   22310.80038274 -.00000177  00000+0 -69130-4 0  9990
2 39260  98.4449 331.6464 0010432 219.8805 140.1577 14.15955703472064
CASSIOPE                
1 39265U 13055A   22310.53167819  .00013948  00000+0  36783-3 0  9991
2 39265  80.9610 116.3615 0608289 256.1718  97.1109 14.42001355472787
ZACUBE-1 (TSHEPISOSAT)  
1 39417U 13066B   22310.43723955  .00003408  00000+0  41515-3 0  9999
2 39417  97.6552 275.6993 0055577 300.0737  59.4973 14.82946357484169
CINEMA-3 (KHUSAT-2)     
1 39426U 13066L   22310.38261771  .00001375  00000+0  21666-3 0  9992
2 39426  97.8099 244.2283 0103605 140.4624 220.4200 14.70451784480125
TRITON-1                
1 39427U 13066M   22310.81650883  .00001808  00000+0  28585-3 0  9995
2 39427  97.8213 240.4942 0111178 168.7344 191.6390 14.69416760479872
DELFI-N3XT              
1 39428U 13066N   22310.77208446  .00002987  00000+0  45791-3 0  9992
2 39428  97.8213 239.1003 0115477 181.8240 178.2561 14.69937305479619
GOMX-1                  
1 39430U 13066Q   22310.69823069  .00003638  00000+0  65130-3 0  9993
2 39430  97.7953 209.7036 0147158 316.6434  42.3305 14.60587876477053
BRITE-PL1 (LEM)         
1 39431U 13066R   22310.50394378  .00000738  00000+0  16502-3 0  9997
2 39431  97.6844 151.5045 0201828 148.1170 213.2428 14.47485313472919
ICUBE-1                 
1 39432U 13066S   22310.46402496  .00003740  00000+0  36401-3 0  9990
2 39432  97.4736 306.9687 0031535 146.6023 213.7195 14.92731025485882
HUMSAT-D                
1 39433U 13066T   22310.53193173  .00004625  00000+0  41989-3 0  9998
2 39433  97.4506 314.7834 0030207 119.8876 240.5353 14.95392025486445
VELOX-PII               
1 39438U 13066Y   22310.43185665  .00003315  00000+0  43428-3 0  9994
2 39438  97.7113 267.1145 0068778 355.6980   4.3632 14.79363801481996
FIRST-MOVE              
1 39439U 13066Z   22310.41138601  .00006581  00000+0  74572-3 0  9993
2 39439  97.6544 278.4771 0059558 294.0254  65.4735 14.85420173483111
CUBEBUG-2 (LO-74)       
1 39440U 13066AA  22310.43098982  .00003588  00000+0  48453-3 0  9997
2 39440  97.7439 262.1731 0079053  31.8972 328.6990 14.77511502481246
NEE-02 KRYSAOR          
1 39441U 13066AB  22310.62817159  .00002494  00000+0  34955-3 0  9991
2 39441  97.7548 259.4567 0081370  45.6401 315.1438 14.76100598482167
FUNCUBE-1 (AO-73)       
1 39444U 13066AE  22310.48068781  .00003829  00000+0  45279-3 0  9991
2 39444  97.6426 278.1724 0054013 286.8811  72.6486 14.84163171482584
HINCUBE                 
1 39445U 13066AF  22310.48386145  .00003793  00000+0  45077-3 0  9995
2 39445  97.6442 277.9803 0054138 289.3015  70.2349 14.83954772482520
UWE-3                   
1 39446U 13066AG  22310.81497393  .00003741  00000+0  48092-3 0  9994
2 39446  97.7045 268.8962 0067647 346.6256  13.3161 14.80126087482100
AIST-1 (RS-41)          
1 39492U 13078C   22310.89464802  .00001849  00000+0  19477-3 0  9997
2 39492  82.4159 100.3095 0019689 358.7726   1.3444 14.88714482480978
SPROUT                  
1 39770U 14029E   22310.78856871  .00012372  00000+0  11933-2 0  9993
2 39770  97.9538  68.8844 0007831 338.3660  21.7199 14.93015442458880
UNISAT-6                
1 40012U 14033C   22310.49790770  .00002015  00000+0  29635-3 0  9994
2 40012  97.6614 130.9327 0058222  59.5220 301.1722 14.75317519450928
BUGSAT-1 (TITA)         
1 40014U 14033E   22310.57711168  .00005198  00000+0  44949-3 0  9999
2 40014  98.1452 314.8752 0028492 288.2721  71.5394 14.97351799457409
DUCHIFAT-1              
1 40021U 14033M   22310.12737123  .00005786  00000+0  54825-3 0  9994
2 40021  98.0284 263.0958 0010636 297.9871  62.0271 14.93958630455844
NANOSATC-BR1            
1 40024U 14033Q   22310.38240479  .00004995  00000+0  49030-3 0  9991
2 40024  97.9994 255.9458 0010227 305.0664  54.9595 14.92627160455147
QB50P1                  
1 40025U 14033R   22310.48388432  .00003821  00000+0  38963-3 0  9995
2 40025  97.9715 249.1104 0010817 315.9744  44.0612 14.91242793454925
DTUSAT-2                
1 40030U 14033W   22310.32277874  .00003598  00000+0  37277-3 0  9999
2 40030  97.9459 243.7537 0010266 313.8921  46.1448 14.90636015454774
QB50P2                  
1 40032U 14033Y   22310.36462129  .00004421  00000+0  45689-3 0  9996
2 40032  97.9462 243.8109 0010126 314.7920  45.2474 14.90615078454753
POLYITAN-1              
1 40042U 14033AJ  22310.82576175  .00004855  00000+0  49087-3 0  9992
2 40042  97.9825 250.8559 0012703 305.3028  54.7002 14.91433104455372
TIGRISAT                
1 40043U 14033AK  22310.47063154  .00001622  00000+0  23950-3 0  9992
2 40043  97.6555 132.1150 0060056  56.9766 303.7194 14.75336715450568
AISAT                   
1 40054U 14034B   22310.48400446  .00003883  00000+0  51450-3 0  9992
2 40054  98.3652 127.7380 0011534 217.3561 142.6849 14.80469469450481
CANX-4                  
1 40055U 14034C   22310.67771200  .00001424  00000+0  21633-3 0  9992
2 40055  98.3720 112.4426 0012899 265.3247  94.6488 14.75677275449729
CANX-5                  
1 40056U 14034D   22310.41339588  .00001426  00000+0  21658-3 0  9993
2 40056  98.3721 112.1486 0012909 266.3523  93.6209 14.75673627440463
VELOX-I                 
1 40057U 14034E   22310.75231422  .00004084  00000+0  55000-3 0  9990
2 40057  98.3712 129.1079 0009868 230.9114 129.1216 14.79756637450510
METEOR-M 2              
1 40069U 14037A   22310.79711053  .00000281  00000+0  14934-3 0  9999
2 40069  98.4288 322.0903 0004566 267.4237  92.6398 14.20725663432070
DX1                     
1 40071U 14037C   22310.66587514  .00001365  00000+0  17889-3 0  9997
2 40071  98.3848 186.3243 0007594 212.9306 147.1435 14.82109831450404
UKUBE-1                 
1 40074U 14037F   22310.53137998  .00005025  00000+0  58138-3 0  9992
2 40074  98.3607 198.5196 0004516 173.2335 186.8929 14.86006992451164
FIREBIRD 3              
1 40377U 15003B   22310.49672134  .00032009  00000+0  81904-3 0  9992
2 40377  99.0787 207.4628 0086542 262.2314  96.9092 15.35538375430172
FIREBIRD 4              
1 40378U 15003C   22310.51273912  .00032494  00000+0  82906-3 0  9998
2 40378  99.0796 207.7299 0086414 261.6772  97.4661 15.35631821430188
GRIFEX                  
1 40379U 15003D   22310.81495818  .00020097  00000+0  65219-3 0  9997
2 40379  99.0892 192.2626 0106988 309.3782  49.8011 15.26561406429323
CP10 (EXOCUBE)          
1 40380U 15003E   22310.80637422  .00014470  00000+0  52390-3 0  9991
2 40380  99.0998 184.3000 0117562 336.1801  23.4014 15.22179645428809
DEORBITSAIL             
1 40719U 15032E   22310.88861902  .00003452  00000+0  47222-3 0  9995
2 40719  97.7600 184.3770 0014182 262.8422  97.1177 14.79087184394933
NUDT-PHONESAT           
1 40900U 15049B   22310.86569737  .00062708  00000+0  13129-2 0  9991
2 40900  97.3910 330.2972 0009978 124.4888   1.3144 15.45177215396524
XW-2A                   
1 40903U 15049E   22310.80556763  .00050482  00000+0  59622-3 0  9998
2 40903  97.1599  10.0119 0006543 315.9989 180.4786 15.61150136401404
XW-2C                   
1 40906U 15049H   22310.82281340  .00009768  00000+0  44634-3 0  9997
2 40906  97.4970 313.2661 0012346 214.3971 269.4962 15.20708468394546
XW-2D                   
1 40907U 15049J   22310.83318840  .00010891  00000+0  48456-3 0  9990
2 40907  97.4957 313.3988 0011443 208.6897 229.1025 15.21604482394607
LILACSAT-2              
1 40908U 15049K   22310.85294192  .00004476  00000+0  23142-3 0  9993
2 40908  97.5226 310.1509 0013256 238.9988 241.4949 15.16708713394061
XW-2E                   
1 40909U 15049L   22310.81303223  .00017262  00000+0  66270-3 0  9992
2 40909  97.4656 318.2799 0011281 182.1445 256.2540 15.26470030395108
XW-2F                   
1 40910U 15049M   22310.86402986  .00016377  00000+0  63921-3 0  9991
2 40910  97.4735 317.5000 0012002 183.5733 296.4710 15.25923380394870
XW-2B                   
1 40911U 15049N   22310.80377083  .00010711  00000+0  47846-3 0  9999
2 40911  97.4944 313.9204 0011349 209.9668 227.6336 15.21470984394482
KAITUO 1B               
1 40912U 15049P   22310.82556166  .00019594  00000+0  68607-3 0  9999
2 40912  97.4338 321.8147 0012977 149.6364 335.8774 15.29454533395484
TIANWANG 1A (TW-1A)     
1 40928U 15051D   22310.86561547  .00179289  00000+0  96589-3 0  9990
2 40928  97.0201 333.5780 0005405 172.1155 313.6157 15.79672256400537
LAPAN-A2                
1 40931U 15052B   22310.87558377  .00001237  00000+0  82473-4 0  9998
2 40931   5.9961 233.0582 0013946  24.5090 335.4748 14.76910082384439
LQSAT                   
1 40958U 15057A   22310.67646195  .00000589  00000+0  97759-4 0  9998
2 40958  97.7339 350.4072 0017309 218.3552 141.6400 14.73490220380923
ATHENOXAT 1             
1 41168U 15077C   22310.81632234  .00032581  00000+0  12075-2 0  9992
2 41168  14.9852 112.3513 0009008  86.2435 313.0979 15.25528356382043
GALASSIA                
1 41170U 15077E   22310.57029209  .00019775  00000+0  76509-3 0  9993
2 41170  14.9863 106.7369 0010407 107.5475 252.5985 15.23636804382062
VELOX-II                
1 41171U 15077F   22310.36824389  .00013087  00000+0  58569-3 0  9999
2 41171  14.9900 189.4607 0007493 292.6237  67.3292 15.18167206381196
CHUBUSAT-2              
1 41338U 16012B   22310.11981254  .00003273  00000+0  23734-3 0  9994
2 41338  31.0023 201.5422 0012775 119.4647 240.7264 15.01968775368797
CHUBUSAT-3              
1 41339U 16012C   22310.83806289  .00003415  00000+0  24775-3 0  9992
2 41339  31.0104 193.8722 0012261 133.6107 226.5518 15.02004777368904
HORYU-4                 
1 41340U 16012D   22310.88920037  .00004804  00000+0  32978-3 0  9994
2 41340  31.0033 168.9089 0012513 180.8605 179.2011 15.04331307369180
